[{"OBJECT_NAME":"ZHONGXING-2A","OBJECT_ID":"2012-028A","EPOCH":"2026-04-27T04:46:21.775296","MEAN_MOTION":1.0027251,"ECCENTRICITY":0.0001811,"INCLINATION":1.3242,"RA_OF_ASC_NODE":84.4939,"ARG_OF_PERICENTER":29.2422,"MEAN_ANOMALY":271.2872,"EPHEMERIS_TYPE":0,"CLASSIFICATION_TYPE":"U","NORAD_CAT_ID":38352,"ELEMENT_SET_NO":999,"REV_AT_EPOCH":5078,"BSTAR":0,"MEAN_MOTION_DOT":-3.02e-6,"MEAN_MOTION_DDOT":0},{"OBJECT_NAME":"INTELSAT 19 (IS-19)","OBJECT_ID":"2012-030A","EPOCH":"2026-04-27T02:42:38.699424","MEAN_MOTION":1.00272183,"ECCENTRICITY":0.0003105,"INCLINATION":0.0209,"RA_OF_ASC_NODE":261.1108,"ARG_OF_PERICENTER":134.7004,"MEAN_ANOMALY":25.9526,"EPHEMERIS_TYPE":0,"CLASSIFICATION_TYPE":"U","NORAD_CAT_ID":38356,"ELEMENT_SET_NO":999,"REV_AT_EPOCH":4993,"BSTAR":0,"MEAN_MOTION_DOT":-6.7e-7,"MEAN_MOTION_DDOT":0},{"OBJECT_NAME":"ECHOSTAR 17","OBJECT_ID":"2012-035A","EPOCH":"2026-04-27T03:38:38.455008","MEAN_MOTION":1.00269617,"ECCENTRICITY":0.0002198,"INCLINATION":0.0157,"RA_OF_ASC_NODE":230.8322,"ARG_OF_PERICENTER":171.5958,"MEAN_ANOMALY":120.2761,"EPHEMERIS_TYPE":0,"CLASSIFICATION_TYPE":"U","NORAD_CAT_ID":38551,"ELEMENT_SET_NO":999,"REV_AT_EPOCH":5055,"BSTAR":0,"MEAN_MOTION_DOT":0,"MEAN_MOTION_DDOT":0},{"OBJECT_NAME":"METEOSAT-10 (MSG-3)","OBJECT_ID":"2012-035B","EPOCH":"2026-04-27T02:53:38.770368","MEAN_MOTION":1.00268137,"ECCENTRICITY":0.0002097,"INCLINATION":4.5534,"RA_OF_ASC_NODE":61.2362,"ARG_OF_PERICENTER":313.1941,"MEAN_ANOMALY":244.2674,"EPHEMERIS_TYPE":0,"CLASSIFICATION_TYPE":"U","NORAD_CAT_ID":38552,"ELEMENT_SET_NO":999,"REV_AT_EPOCH":5034,"BSTAR":0,"MEAN_MOTION_DOT":-1.4e-7,"MEAN_MOTION_DDOT":0},{"OBJECT_NAME":"SES-5","OBJECT_ID":"2012-036A","EPOCH":"2026-04-27T02:53:38.770368","MEAN_MOTION":1.00271737,"ECCENTRICITY":0.0001943,"INCLINATION":0.06,"RA_OF_ASC_NODE":300.1403,"ARG_OF_PERICENTER":95.0072,"MEAN_ANOMALY":228.3558,"EPHEMERIS_TYPE":0,"CLASSIFICATION_TYPE":"U","NORAD_CAT_ID":38652,"ELEMENT_SET_NO":999,"REV_AT_EPOCH":4394,"BSTAR":0,"MEAN_MOTION_DOT":2.3e-7,"MEAN_MOTION_DDOT":0},{"OBJECT_NAME":"INTELSAT 20 (IS-20)","OBJECT_ID":"2012-043A","EPOCH":"2026-04-26T21:45:38.560320","MEAN_MOTION":1.00271794,"ECCENTRICITY":0.0002119,"INCLINATION":0.0202,"RA_OF_ASC_NODE":146.6474,"ARG_OF_PERICENTER":32.4241,"MEAN_ANOMALY":70.7285,"EPHEMERIS_TYPE":0,"CLASSIFICATION_TYPE":"U","NORAD_CAT_ID":38740,"ELEMENT_SET_NO":999,"REV_AT_EPOCH":5023,"BSTAR":0,"MEAN_MOTION_DOT":-3.5e-7,"MEAN_MOTION_DDOT":0},{"OBJECT_NAME":"HYLAS 2","OBJECT_ID":"2012-043B","EPOCH":"2026-04-27T04:35:38.533344","MEAN_MOTION":1.0027168,"ECCENTRICITY":0.0002727,"INCLINATION":2.2976,"RA_OF_ASC_NODE":81.6591,"ARG_OF_PERICENTER":337.7594,"MEAN_ANOMALY":152.1222,"EPHEMERIS_TYPE":0,"CLASSIFICATION_TYPE":"U","NORAD_CAT_ID":38741,"ELEMENT_SET_NO":999,"REV_AT_EPOCH":5026,"BSTAR":0,"MEAN_MOTION_DOT":-2.66e-6,"MEAN_MOTION_DDOT":0},{"OBJECT_NAME":"INTELSAT 21 (IS-21)","OBJECT_ID":"2012-045A","EPOCH":"2026-04-27T04:27:38.602944","MEAN_MOTION":1.002709,"ECCENTRICITY":0.0002087,"INCLINATION":0.0594,"RA_OF_ASC_NODE":79.2526,"ARG_OF_PERICENTER":329.593,"MEAN_ANOMALY":175.2362,"EPHEMERIS_TYPE":0,"CLASSIFICATION_TYPE":"U","NORAD_CAT_ID":38749,"ELEMENT_SET_NO":999,"REV_AT_EPOCH":5001,"BSTAR":0,"MEAN_MOTION_DOT":-2.95e-6,"MEAN_MOTION_DDOT":0},{"OBJECT_NAME":"ASTRA 2F","OBJECT_ID":"2012-051A","EPOCH":"2026-04-27T05:04:38.648352","MEAN_MOTION":1.00272118,"ECCENTRICITY":4.27e-5,"INCLINATION":0.0348,"RA_OF_ASC_NODE":249.368,"ARG_OF_PERICENTER":15.6991,"MEAN_ANOMALY":54.4973,"EPHEMERIS_TYPE":0,"CLASSIFICATION_TYPE":"U","NORAD_CAT_ID":38778,"ELEMENT_SET_NO":999,"REV_AT_EPOCH":4062,"BSTAR":0,"MEAN_MOTION_DOT":1.4e-6,"MEAN_MOTION_DDOT":0},{"OBJECT_NAME":"GSAT-10","OBJECT_ID":"2012-051B","EPOCH":"2026-04-27T00:13:40.908000","MEAN_MOTION":1.00270014,"ECCENTRICITY":0.0007013,"INCLINATION":0.0226,"RA_OF_ASC_NODE":263.314,"ARG_OF_PERICENTER":178.6142,"MEAN_ANOMALY":219.4606,"EPHEMERIS_TYPE":0,"CLASSIFICATION_TYPE":"U","NORAD_CAT_ID":38779,"ELEMENT_SET_NO":999,"REV_AT_EPOCH":4958,"BSTAR":0,"MEAN_MOTION_DOT":-1.75e-6,"MEAN_MOTION_DDOT":0},{"OBJECT_NAME":"INTELSAT 23 (IS-23)","OBJECT_ID":"2012-057A","EPOCH":"2026-04-27T01:17:42.265824","MEAN_MOTION":1.00275519,"ECCENTRICITY":3.1e-5,"INCLINATION":0.0196,"RA_OF_ASC_NODE":265.2605,"ARG_OF_PERICENTER":345.5296,"MEAN_ANOMALY":290.6693,"EPHEMERIS_TYPE":0,"CLASSIFICATION_TYPE":"U","NORAD_CAT_ID":38867,"ELEMENT_SET_NO":999,"REV_AT_EPOCH":4944,"BSTAR":0,"MEAN_MOTION_DOT":-2.95e-6,"MEAN_MOTION_DDOT":0},{"OBJECT_NAME":"BEIDOU-2 G6","OBJECT_ID":"2012-059A","EPOCH":"2026-04-27T00:13:55.883712","MEAN_MOTION":1.00274553,"ECCENTRICITY":0.0010594,"INCLINATION":4.2943,"RA_OF_ASC_NODE":74.0523,"ARG_OF_PERICENTER":314.3518,"MEAN_ANOMALY":274.035,"EPHEMERIS_TYPE":0,"CLASSIFICATION_TYPE":"U","NORAD_CAT_ID":38953,"ELEMENT_SET_NO":999,"REV_AT_EPOCH":4939,"BSTAR":0,"MEAN_MOTION_DOT":-1.83e-6,"MEAN_MOTION_DDOT":0},{"OBJECT_NAME":"LUCH-5B","OBJECT_ID":"2012-061A","EPOCH":"2026-04-27T01:28:11.260416","MEAN_MOTION":1.00271707,"ECCENTRICITY":0.0001718,"INCLINATION":10.3768,"RA_OF_ASC_NODE":50.3818,"ARG_OF_PERICENTER":214.0239,"MEAN_ANOMALY":316.4236,"EPHEMERIS_TYPE":0,"CLASSIFICATION_TYPE":"U","NORAD_CAT_ID":38977,"ELEMENT_SET_NO":999,"REV_AT_EPOCH":4909,"BSTAR":0,"MEAN_MOTION_DOT":-1.43e-6,"MEAN_MOTION_DDOT":0},{"OBJECT_NAME":"YAMAL 300K","OBJECT_ID":"2012-061B","EPOCH":"2026-04-26T21:46:49.480896","MEAN_MOTION":1.00270093,"ECCENTRICITY":3.824e-5,"INCLINATION":0.0095,"RA_OF_ASC_NODE":257.9248,"ARG_OF_PERICENTER":42.6909,"MEAN_ANOMALY":63.9296,"EPHEMERIS_TYPE":0,"CLASSIFICATION_TYPE":"U","NORAD_CAT_ID":38978,"ELEMENT_SET_NO":999,"REV_AT_EPOCH":4911,"BSTAR":0,"MEAN_MOTION_DOT":6.0e-7,"MEAN_MOTION_DDOT":0},{"OBJECT_NAME":"STAR ONE C3","OBJECT_ID":"2012-062A","EPOCH":"2026-04-27T04:35:38.533344","MEAN_MOTION":1.00272424,"ECCENTRICITY":0.0002456,"INCLINATION":0.0151,"RA_OF_ASC_NODE":272.5281,"ARG_OF_PERICENTER":141.7428,"MEAN_ANOMALY":154.8225,"EPHEMERIS_TYPE":0,"CLASSIFICATION_TYPE":"U","NORAD_CAT_ID":38991,"ELEMENT_SET_NO":999,"REV_AT_EPOCH":4925,"BSTAR":0,"MEAN_MOTION_DOT":-2.59e-6,"MEAN_MOTION_DDOT":0},{"OBJECT_NAME":"EUTELSAT 21B","OBJECT_ID":"2012-062B","EPOCH":"2026-04-27T05:04:38.648352","MEAN_MOTION":1.00270616,"ECCENTRICITY":0.0002918,"INCLINATION":0.0707,"RA_OF_ASC_NODE":358.411,"ARG_OF_PERICENTER":37.4469,"MEAN_ANOMALY":277.1039,"EPHEMERIS_TYPE":0,"CLASSIFICATION_TYPE":"U","NORAD_CAT_ID":38992,"ELEMENT_SET_NO":999,"REV_AT_EPOCH":4931,"BSTAR":0,"MEAN_MOTION_DOT":1.2e-6,"MEAN_MOTION_DDOT":0},{"OBJECT_NAME":"ECHOSTAR 16","OBJECT_ID":"2012-065A","EPOCH":"2026-04-27T01:15:12.506112","MEAN_MOTION":1.0027496,"ECCENTRICITY":0.0002127,"INCLINATION":0.0158,"RA_OF_ASC_NODE":231.5273,"ARG_OF_PERICENTER":160.6627,"MEAN_ANOMALY":140.1631,"EPHEMERIS_TYPE":0,"CLASSIFICATION_TYPE":"U","NORAD_CAT_ID":39008,"ELEMENT_SET_NO":999,"REV_AT_EPOCH":4913,"BSTAR":0,"MEAN_MOTION_DOT":0,"MEAN_MOTION_DDOT":0}]
