ZHONGXING-2A            
1 38352U 12028A   26117.19886314 -.00000302  00000+0  00000+0 0  9995
2 38352   1.3242  84.4939 0001811  29.2422 271.2872  1.00272510 50781
INTELSAT 19 (IS-19)     
1 38356U 12030A   26117.11294791 -.00000067  00000+0  00000+0 0  9994
2 38356   0.0209 261.1108 0003105 134.7004  25.9526  1.00272183 49933
ECHOSTAR 17             
1 38551U 12035A   26117.15183397  .00000000  00000+0  00000+0 0  9995
2 38551   0.0157 230.8322 0002198 171.5958 120.2761  1.00269617 50559
METEOSAT-10 (MSG-3)     
1 38552U 12035B   26117.12058762 -.00000014  00000+0  00000+0 0  9996
2 38552   4.5534  61.2362 0002097 313.1941 244.2674  1.00268137 50345
SES-5                   
1 38652U 12036A   26117.12058762  .00000023  00000+0  00000+0 0  9997
2 38652   0.0600 300.1403 0001943  95.0072 228.3558  1.00271737 43944
INTELSAT 20 (IS-20)     
1 38740U 12043A   26116.90669630 -.00000035  00000+0  00000+0 0  9994
2 38740   0.0202 146.6474 0002119  32.4241  70.7285  1.00271794 50239
HYLAS 2                 
1 38741U 12043B   26117.19141821 -.00000266  00000+0  00000+0 0  9990
2 38741   2.2976  81.6591 0002727 337.7594 152.1222  1.00271680 50260
INTELSAT 21 (IS-21)     
1 38749U 12045A   26117.18586346 -.00000295  00000+0  00000+0 0  9996
2 38749   0.0594  79.2526 0002087 329.5930 175.2362  1.00270900 50011
ASTRA 2F                
1 38778U 12051A   26117.21155843  .00000140  00000+0  00000+0 0  9991
2 38778   0.0348 249.3680 0000427  15.6991  54.4973  1.00272118 40622
GSAT-10                 
1 38779U 12051B   26117.00950125 -.00000175  00000+0  00000+0 0  9994
2 38779   0.0226 263.3140 0007013 178.6142 219.4606  1.00270014 49584
INTELSAT 23 (IS-23)     
1 38867U 12057A   26117.05396141 -.00000295  00000+0  00000+0 0  9998
2 38867   0.0196 265.2605 0000310 345.5296 290.6693  1.00275519 49440
BEIDOU-2 G6             
1 38953U 12059A   26117.00967458 -.00000183  00000+0  00000+0 0  9992
2 38953   4.2943  74.0523 0010594 314.3518 274.0350  1.00274553 49390
LUCH-5B                 
1 38977U 12061A   26117.06124144 -.00000143  00000+0  00000+0 0  9990
2 38977  10.3768  50.3818 0001718 214.0239 316.4236  1.00271707 49096
YAMAL 300K              
1 38978U 12061B   26116.90751714  .00000060  00000+0  00000+0 0  9999
2 38978   0.0095 257.9248 0000382  42.6909  63.9296  1.00270093 49113
STAR ONE C3             
1 38991U 12062A   26117.19141821 -.00000259  00000+0  00000+0 0  9990
2 38991   0.0151 272.5281 0002456 141.7428 154.8225  1.00272424 49259
EUTELSAT 21B            
1 38992U 12062B   26117.21155843  .00000120  00000+0  00000+0 0  9999
2 38992   0.0707 358.4110 0002918  37.4469 277.1039  1.00270616 49311
ECHOSTAR 16             
1 39008U 12065A   26117.05222808  .00000000  00000+0  00000+0 0  9996
2 39008   0.0158 231.5273 0002127 160.6627 140.1631  1.00274960 49131
